{"type": "FeatureCollection", "features": [ {"type": "Feature", "properties": {"norad_id": 66445, "name": "STARLINK-34698", "group": "last-30-days", "lat": -33.4357779540316, "lon": 55.23259971975458, "alt_km": 417.1953430735075, "timestamp": "2025-12-03T15:48:01.919084+00:00", "meta": {"OBJECT_NAME": "STARLINK-34698", "OBJECT_ID": "2025-259Z", "EPOCH": "2025-12-03T08:00:01.999872", "MEAN_MOTION": 15.5081778, "ECCENTRICITY": 0.00015483, "INCLINATION": 43.0001, "RA_OF_ASC_NODE": 102.2524, "ARG_OF_PERICENTER": 264.6384, "MEAN_ANOMALY": 25.0118, "EPHEMERIS_TYPE": 0, "CLASSIFICATION_TYPE": "U", "NORAD_CAT_ID": 66445, "ELEMENT_SET_NO": 999, "REV_AT_EPOCH": 466, "BSTAR": -0.0070368044, "MEAN_MOTION_DOT": -0.00396319, "MEAN_MOTION_DDOT": 0}, "tle": {"line1": "1 66445U 25259Z   25337.33335648 -.00396319  00000+0 -70368-2 0  9991", "line2": "2 66445  43.0001 102.2524 0001548 264.6384  25.0118 15.50817780  4667"}}, "geometry": {"type": "Point", "coordinates": [55.23259971975458, -33.4357779540316]}}, {"type": "Feature", "properties": {"norad_id": 66446, "name": "STARLINK-34986", "group": "last-30-days", "lat": -32.51026606966608, "lon": 57.19399467742976, "alt_km": 417.2516997538305, "timestamp": "2025-12-03T15:48:01.919093+00:00", "meta": {"OBJECT_NAME": "STARLINK-34986", "OBJECT_ID": "2025-259AA", "EPOCH": "2025-12-03T08:00:01.999872", "MEAN_MOTION": 15.5070201, "ECCENTRICITY": 0.00014473, "INCLINATION": 43.0002, "RA_OF_ASC_NODE": 102.247, "ARG_OF_PERICENTER": 259.6713, "MEAN_ANOMALY": 31.9325, "EPHEMERIS_TYPE": 0, "CLASSIFICATION_TYPE": "U", "NORAD_CAT_ID": 66446, "ELEMENT_SET_NO": 999, "REV_AT_EPOCH": 476, "BSTAR": -0.0036805027, "MEAN_MOTION_DOT": -0.00211458, "MEAN_MOTION_DDOT": 0}, "tle": {"line1": "1 66446U 25259AA  25337.33335648 -.00211458  00000+0 -36805-2 0  9990", "line2": "2 66446  43.0002 102.2470 0001447 259.6713  31.9325 15.50702010  4763"}}, "geometry": {"type": "Point", "coordinates": [57.19399467742976, -32.51026606966608]}}, {"type": "Feature", "properties": {"norad_id": 66447, "name": "STARLINK-34851", "group": "last-30-days", "lat": -30.547629660915927, "lon": 61.04079572575048, "alt_km": 417.1135375534968, "timestamp": "2025-12-03T15:48:01.919102+00:00", "meta": {"OBJECT_NAME": "STARLINK-34851", "OBJECT_ID": "2025-259AB", "EPOCH": "2025-12-03T08:00:01.999872", "MEAN_MOTION": 15.50592197, "ECCENTRICITY": 0.00015463, "INCLINATION": 43.0001, "RA_OF_ASC_NODE": 102.2381, "ARG_OF_PERICENTER": 267.3657, "MEAN_ANOMALY": 28.1488, "EPHEMERIS_TYPE": 0, "CLASSIFICATION_TYPE": "U", "NORAD_CAT_ID": 66447, "ELEMENT_SET_NO": 999, "REV_AT_EPOCH": 466, "BSTAR": -0.0014477693, "MEAN_MOTION_DOT": -0.00084406, "MEAN_MOTION_DDOT": 0}, "tle": {"line1": "1 66447U 25259AB  25337.33335648 -.00084406  00000+0 -14478-2 0  9994", "line2": "2 66447  43.0001 102.2381 0001546 267.3657  28.1488 15.50592197  4667"}}, "geometry": {"type": "Point", "coordinates": [61.04079572575048, -30.547629660915927]}}, {"type": "Feature", "properties": {"norad_id": 66448, "name": "STARLINK-35355", "group": "last-30-days", "lat": -29.525075329302595, "lon": 62.90359018994835, "alt_km": 417.04769013723126, "timestamp": "2025-12-03T15:48:01.919112+00:00", "meta": {"OBJECT_NAME": "STARLINK-35355", "OBJECT_ID": "2025-259AC", "EPOCH": "2025-12-03T08:00:01.999872", "MEAN_MOTION": 15.50657019, "ECCENTRICITY": 0.00015385, "INCLINATION": 43.0001, "RA_OF_ASC_NODE": 102.2335, "ARG_OF_PERICENTER": 264.1005, "MEAN_ANOMALY": 33.2762, "EPHEMERIS_TYPE": 0, "CLASSIFICATION_TYPE": "U", "NORAD_CAT_ID": 66448, "ELEMENT_SET_NO": 999, "REV_AT_EPOCH": 476, "BSTAR": -0.002532771, "MEAN_MOTION_DOT": -0.00146588, "MEAN_MOTION_DDOT": 0}, "tle": {"line1": "1 66448U 25259AC  25337.33335648 -.00146588  00000+0 -25328-2 0  9991", "line2": "2 66448  43.0001 102.2335 0001538 264.1005  33.2762 15.50657019  4768"}}, "geometry": {"type": "Point", "coordinates": [62.90359018994835, -29.525075329302595]}}, {"type": "Feature", "properties": {"norad_id": 66449, "name": "STARLINK-34720", "group": "last-30-days", "lat": -28.45926380496251, "lon": 64.75769702924985, "alt_km": 417.0909435538151, "timestamp": "2025-12-03T15:48:01.919121+00:00", "meta": {"OBJECT_NAME": "STARLINK-34720", "OBJECT_ID": "2025-259AD", "EPOCH": "2025-12-03T08:00:01.999872", "MEAN_MOTION": 15.50563841, "ECCENTRICITY": 0.00014792, "INCLINATION": 43.0002, "RA_OF_ASC_NODE": 102.2274, "ARG_OF_PERICENTER": 267.0265, "MEAN_ANOMALY": 32.3716, "EPHEMERIS_TYPE": 0, "CLASSIFICATION_TYPE": "U", "NORAD_CAT_ID": 66449, "ELEMENT_SET_NO": 999, "REV_AT_EPOCH": 466, "BSTAR": -0.00094056125, "MEAN_MOTION_DOT": -0.00055103, "MEAN_MOTION_DDOT": 0}, "tle": {"line1": "1 66449U 25259AD  25337.33335648 -.00055103  00000+0 -94056-3 0  9999", "line2": "2 66449  43.0002 102.2274 0001479 267.0265  32.3716 15.50563841  4663"}}, "geometry": {"type": "Point", "coordinates": [64.75769702924985, -28.45926380496251]}}, {"type": "Feature", "properties": {"norad_id": 66450, "name": "STARLINK-35334", "group": "last-30-days", "lat": -27.416847187660778, "lon": 66.49535693229595, "alt_km": 417.0581939805461, "timestamp": "2025-12-03T15:48:01.919130+00:00", "meta": {"OBJECT_NAME": "STARLINK-35334", "OBJECT_ID": "2025-259AE", "EPOCH": "2025-12-03T08:00:01.999872", "MEAN_MOTION": 15.50562883, "ECCENTRICITY": 0.00014632, "INCLINATION": 43.0002, "RA_OF_ASC_NODE": 102.2217, "ARG_OF_PERICENTER": 260.1098, "MEAN_ANOMALY": 41.1311, "EPHEMERIS_TYPE": 0, "CLASSIFICATION_TYPE": "U", "NORAD_CAT_ID": 66450, "ELEMENT_SET_NO": 999, "REV_AT_EPOCH": 476, "BSTAR": -0.00010963131, "MEAN_MOTION_DOT": -6.764e-05, "MEAN_MOTION_DDOT": 0}, "tle": {"line1": "1 66450U 25259AE  25337.33335648 -.00006764  00000+0 -10963-3 0  9995", "line2": "2 66450  43.0002 102.2217 0001463 260.1098  41.1311 15.50562883  4768"}}, "geometry": {"type": "Point", "coordinates": [66.49535693229595, -27.416847187660778]}}, {"type": "Feature", "properties": {"norad_id": 66454, "name": "VIASAT-3 F2", "group": "last-30-days", "lat": 4.415090116032333, "lon": -14.672726911527128, "alt_km": 20914.596705102635, "timestamp": "2025-12-03T15:48:01.919141+00:00", "meta": {"OBJECT_NAME": "VIASAT-3 F2", "OBJECT_ID": "2025-261A", "EPOCH": "2025-12-03T04:22:55.726752", "MEAN_MOTION": 2.28102609, "ECCENTRICITY": 0.23421704, "INCLINATION": 5.5737, "RA_OF_ASC_NODE": 293.2208, "ARG_OF_PERICENTER": 184.0512, "MEAN_ANOMALY": 219.9832, "EPHEMERIS_TYPE": 0, "CLASSIFICATION_TYPE": "U", "NORAD_CAT_ID": 66454, "ELEMENT_SET_NO": 999, "REV_AT_EPOCH": 43, "BSTAR": 0, "MEAN_MOTION_DOT": -5.2e-07, "MEAN_MOTION_DDOT": 0}, "tle": {"line1": "1 66454U 25261A   25337.18258943 -.00000052  00000+0  00000+0 0  9997", "line2": "2 66454   5.5737 293.2208 2342170 184.0512 219.9832  2.28102609   431"}}, "geometry": {"type": "Point", "coordinates": [-14.672726911527128, 4.415090116032333]}}, {"type": "Feature", "properties": {"norad_id": 66455, "name": "ATLAS 5 CENTAUR R/B", "group": "last-30-days", "lat": 4.472250352769353, "lon": -21.119919906492022, "alt_km": 21487.69123434077, "timestamp": "2025-12-03T15:48:01.919151+00:00", "meta": {"OBJECT_NAME": "ATLAS 5 CENTAUR R/B", "OBJECT_ID": "2025-261B", "EPOCH": "2025-12-03T04:21:10.894176", "MEAN_MOTION": 2.28259326, "ECCENTRICITY": 0.23296479, "INCLINATION": 6.1583, "RA_OF_ASC_NODE": 292.5721, "ARG_OF_PERICENTER": 184.5618, "MEAN_ANOMALY": 210.3221, "EPHEMERIS_TYPE": 0, "CLASSIFICATION_TYPE": "U", "NORAD_CAT_ID": 66455, "ELEMENT_SET_NO": 999, "REV_AT_EPOCH": 43, "BSTAR": 0, "MEAN_MOTION_DOT": -5.2e-07, "MEAN_MOTION_DDOT": 0}, "tle": {"line1": "1 66455U 25261B   25337.18137609 -.00000052  00000+0  00000+0 0  9993", "line2": "2 66455   6.1583 292.5721 2329647 184.5618 210.3221  2.28259326   432"}}, "geometry": {"type": "Point", "coordinates": [-21.119919906492022, 4.472250352769353]}}, {"type": "Feature", "properties": {"norad_id": 66456, "name": "STARLINK-35643", "group": "last-30-days", "lat": -21.375601701738773, "lon": 99.46724952622208, "alt_km": 392.0617462805403, "timestamp": "2025-12-03T15:48:01.919176+00:00", "meta": {"OBJECT_NAME": "STARLINK-35643", "OBJECT_ID": "2025-262A", "EPOCH": "2025-12-03T08:00:01.999872", "MEAN_MOTION": 15.60455266, "ECCENTRICITY": 0.00016308, "INCLINATION": 42.9993, "RA_OF_ASC_NODE": 126.2322, "ARG_OF_PERICENTER": 264.1633, "MEAN_ANOMALY": 36.5211, "EPHEMERIS_TYPE": 0, "CLASSIFICATION_TYPE": "U", "NORAD_CAT_ID": 66456, "ELEMENT_SET_NO": 999, "REV_AT_EPOCH": 412, "BSTAR": -0.027900862, "MEAN_MOTION_DOT": -0.02061814, "MEAN_MOTION_DDOT": 0}, "tle": {"line1": "1 66456U 25262A   25337.33335648 -.02061814  00000+0 -27901-1 0  9992", "line2": "2 66456  42.9993 126.2322 0001630 264.1633  36.5211 15.60455266  4123"}}, "geometry": {"type": "Point", "coordinates": [99.46724952622208, -21.375601701738773]}}, {"type": "Feature", "properties": {"norad_id": 66457, "name": "STARLINK-35466", "group": "last-30-days", "lat": -18.975140269861726, "lon": 102.64075769154145, "alt_km": 391.8618684600888, "timestamp": "2025-12-03T15:48:01.919186+00:00", "meta": {"OBJECT_NAME": "STARLINK-35466", "OBJECT_ID": "2025-262B", "EPOCH": "2025-12-03T08:00:01.999872", "MEAN_MOTION": 15.60447923, "ECCENTRICITY": 0.00017734, "INCLINATION": 42.9993, "RA_OF_ASC_NODE": 126.2224, "ARG_OF_PERICENTER": 265.5253, "MEAN_ANOMALY": 38.9972, "EPHEMERIS_TYPE": 0, "CLASSIFICATION_TYPE": "U", "NORAD_CAT_ID": 66457, "ELEMENT_SET_NO": 999, "REV_AT_EPOCH": 412, "BSTAR": -0.02778529, "MEAN_MOTION_DOT": -0.02053974, "MEAN_MOTION_DDOT": 0}, "tle": {"line1": "1 66457U 25262B   25337.33335648 -.02053974  00000+0 -27785-1 0  9991", "line2": "2 66457  42.9993 126.2224 0001773 265.5253  38.9972 15.60447923  4127"}}, "geometry": {"type": "Point", "coordinates": [102.64075769154145, -18.975140269861726]}}]}